CCSDS_OMM_VERS,COMMENT,CREATION_DATE,ORIGINATOR,OBJECT_NAME,OBJECT_ID,CENTER_NAME,REF_FRAME,TIME_SYSTEM,MEAN_ELEMENT_THEORY,EPOCH,MEAN_MOTION,ECCENTRICITY,INCLINATION,RA_OF_ASC_NODE,ARG_OF_PERICENTER,MEAN_ANOMALY,EPHEMERIS_TYPE,CLASSIFICATION_TYPE,NORAD_CAT_ID,ELEMENT_SET_NO,REV_AT_EPOCH,BSTAR,MEAN_MOTION_DOT,MEAN_MOTION_DDOT,SEMIMAJOR_AXIS,PERIOD,APOAPSIS,PERIAPSIS,OBJECT_TYPE,RCS_SIZE,COUNTRY_CODE,LAUNCH_DATE,SITE,DECAY_DATE,FILE,GP_ID,TLE_LINE0,TLE_LINE1,TLE_LINE2
"2.0","GENERATED VIA SPACE-TRACK.ORG API","2020-08-08T17:49:11","18 SPCS","COSMOS 2498","2014-028C","EARTH","TEME","UTC","SGP4","2020-08-08T11:32:10.914432","12.42888298","0.00209890","82.4485","8.4869","51.0558","309.2388","0","U","39763","999","28190","0.00026440000000","0.00000047","0.0000000000000","7872.520","115.859","1510.908","1477.861","PAYLOAD","LARGE","CIS","2014-05-23","PKMTR","","2798220","159011271","0 COSMOS 2498","1 39763U 14028C   20221.48068188 +.00000047 +00000-0 +26440-3 0  9993","2 39763 082.4485 008.4869 0020989 051.0558 309.2388 12.42888298281903"
"2.0","GENERATED VIA SPACE-TRACK.ORG API","2020-08-08T06:26:10","18 SPCS","COSMOS 1732","1986-015A","EARTH","TEME","UTC","SGP4","2020-08-08T04:13:55.058880","12.40985980","0.00271140","73.6110","291.8283","248.9018","110.9126","0","U","16593","999","56269","0.00006918600000","-0.00000008","0.0000000000000","7880.563","116.036","1523.795","1481.060","PAYLOAD","LARGE","CIS","1986-02-11","PKMTR","","2797828","158988896","0 COSMOS 1732","1 16593U 86015A   20221.17633170 -.00000008  00000-0  69186-4 0  9992","2 16593  73.6110 291.8283 0027114 248.9018 110.9126 12.40985980562698"
"2.0","GENERATED VIA SPACE-TRACK.ORG API","2020-08-07T22:36:10","18 SPCS","COSMOS 2498","2014-028C","EARTH","TEME","UTC","SGP4","2020-08-07T18:08:56.559552","12.42888306","0.00210060","82.4484","8.9409","52.4462","307.8522","0","U","39763","999","28181","0.00028124000000","0.00000049","0.0000000000000","7872.520","115.859","1510.922","1477.847","PAYLOAD","LARGE","CIS","2014-05-23","PKMTR","","2797727","158966788","0 COSMOS 2498","1 39763U 14028C   20220.75621018  .00000049  00000-0  28124-3 0  9992","2 39763  82.4484   8.9409 0021006  52.4462 307.8522 12.42888306281811"
"2.0","GENERATED VIA SPACE-TRACK.ORG API","2020-08-08T04:38:54","18 SPCS","COSMOS 1732","1986-015A","EARTH","TEME","UTC","SGP4","2020-08-07T14:41:23.969472","12.40985974","0.00271180","73.6111","292.5844","249.6898","110.1230","0","U","16593","999","56238","0.00011939000000","-0.00000001","0.0000000000000","7880.563","116.036","1523.798","1481.057","PAYLOAD","LARGE","CIS","1986-02-11","PKMTR","","2797810","158971790","0 COSMOS 1732","1 16593U 86015A   20220.61208298 -.00000001 +00000-0 +11939-3 0  9994","2 16593 073.6111 292.5844 0027118 249.6898 110.1230 12.40985974562385"
"2.0","GENERATED VIA SPACE-TRACK.ORG API","2020-08-07T17:49:53","18 SPCS","COSMOS 1732","1986-015A","EARTH","TEME","UTC","SGP4","2020-08-07T12:45:19.516896","12.40985917","0.00271080","73.6102","292.6923","249.8003","110.0125","0","U","16593","999","56237","0.00005230400000","-0.00000010","0.0000000000000","7880.563","116.036","1523.791","1481.065","PAYLOAD","LARGE","CIS","1986-02-11","PKMTR","","2797633","158948314","0 COSMOS 1732","1 16593U 86015A   20220.53147589 -.00000010 +00000-0 +52304-4 0  9992","2 16593 073.6102 292.6923 0027108 249.8003 110.0125 12.40985917562371"
"2.0","GENERATED VIA SPACE-TRACK.ORG API","2020-08-07T17:49:53","18 SPCS","COSMOS 2498","2014-028C","EARTH","TEME","UTC","SGP4","2020-08-07T12:21:11.777760","12.42888287","0.00210060","82.4484","9.0921","52.9720","307.3277","0","U","39763","999","28178","0.00028124000000","0.00000049","0.0000000000000","7872.520","115.859","1510.922","1477.848","PAYLOAD","LARGE","CIS","2014-05-23","PKMTR","","2797633","158958455","0 COSMOS 2498","1 39763U 14028C   20220.51471965 +.00000049 +00000-0 +28124-3 0  9990","2 39763 082.4484 009.0921 0021006 052.9720 307.3277 12.42888287281780"
"2.0","GENERATED VIA SPACE-TRACK.ORG API","2020-08-06T20:36:10","18 SPCS","COSMOS 2498","2014-028C","EARTH","TEME","UTC","SGP4","2020-08-06T17:02:02.558112","12.42888180","0.00210150","82.4484","9.5961","54.5940","305.7118","0","U","39763","999","28168","0.00026973000000","0.00000047","0.0000000000000","7872.520","115.859","1510.929","1477.841","PAYLOAD","LARGE","CIS","2014-05-23","PKMTR","","2797134","158913160","0 COSMOS 2498","1 39763U 14028C   20219.70975183  .00000047  00000-0  26973-3 0  9998","2 39763  82.4484   9.5961 0021015  54.5940 305.7118 12.42888180281688"
"2.0","GENERATED VIA SPACE-TRACK.ORG API","2020-08-06T18:58:56","18 SPCS","COSMOS 2498","2014-028C","EARTH","TEME","UTC","SGP4","2020-08-06T11:14:17.769408","12.42887932","0.00210120","82.4482","9.7471","55.0917","305.2133","0","U","39763","999","28165","0.00012318000000","0.00000027","0.0000000000000","7872.521","115.859","1510.928","1477.844","PAYLOAD","LARGE","CIS","2014-05-23","PKMTR","","2797055","158904801","0 COSMOS 2498","1 39763U 14028C   20219.46826122 +.00000027 +00000-0 +12318-3 0  9995","2 39763 082.4482 009.7471 0021012 055.0917 305.2133 12.42887932281654"
"2.0","GENERATED VIA SPACE-TRACK.ORG API","2020-08-06T18:58:56","18 SPCS","COSMOS 1732","1986-015A","EARTH","TEME","UTC","SGP4","2020-08-06T07:44:12.897600","12.40986014","0.00271150","73.6113","294.3126","251.4839","108.3257","0","U","16593","999","56222","0.00018508000000","0.00000008","0.0000000000000","7880.563","116.036","1523.796","1481.059","PAYLOAD","LARGE","CIS","1986-02-11","PKMTR","","2797055","158892791","0 COSMOS 1732","1 16593U 86015A   20219.32237150 +.00000008 +00000-0 +18508-3 0  9994","2 16593 073.6113 294.3126 0027115 251.4839 108.3257 12.40986014562220"
"2.0","GENERATED VIA SPACE-TRACK.ORG API","2020-08-06T06:26:09","18 SPCS","COSMOS 1732","1986-015A","EARTH","TEME","UTC","SGP4","2020-08-06T03:52:04.014912","12.40986023","0.00271180","73.6113","294.5286","251.7101","108.0992","0","U","16593","999","56244","0.00020931000000","0.00000011","0.0000000000000","7880.563","116.036","1523.798","1481.057","PAYLOAD","LARGE","CIS","1986-02-11","PKMTR","","2796796","158884164","0 COSMOS 1732","1 16593U 86015A   20219.16115758  .00000011  00000-0  20931-3 0  9992","2 16593  73.6113 294.5286 0027118 251.7101 108.0992 12.40986023562444"
"2.0","GENERATED VIA SPACE-TRACK.ORG API","2020-08-06T03:20:17","18 SPCS","COSMOS 2498","2014-028C","EARTH","TEME","UTC","SGP4","2020-08-05T17:51:03.443040","12.42887880","0.00210150","82.4482","10.2009","56.6158","303.6944","0","U","39763","999","28156","0.00011910000000","0.00000026","0.0000000000000","7872.521","115.859","1510.930","1477.842","PAYLOAD","LARGE","CIS","2014-05-23","PKMTR","","2796777","158878715","0 COSMOS 2498","1 39763U 14028C   20218.74378985 +.00000026 +00000-0 +11910-3 0  9990","2 39763 082.4482 010.2009 0021015 056.6158 303.6944 12.42887880281569"
"2.0","GENERATED VIA SPACE-TRACK.ORG API","2020-08-05T17:35:33","18 SPCS","COSMOS 1732","1986-015A","EARTH","TEME","UTC","SGP4","2020-08-05T12:23:28.483296","12.40986006","0.00271230","73.6114","295.3927","252.6047","107.2030","0","U","16593","999","56212","0.00024672000000","0.00000016","0.0000000000000","7880.563","116.036","1523.802","1481.053","PAYLOAD","LARGE","CIS","1986-02-11","PKMTR","","2796599","158822179","0 COSMOS 1732","1 16593U 86015A   20218.51630189 +.00000016 +00000-0 +24672-3 0  9991","2 16593 073.6114 295.3927 0027123 252.6047 107.2030 12.40986006562121"
"2.0","GENERATED VIA SPACE-TRACK.ORG API","2020-08-05T17:35:33","18 SPCS","COSMOS 2498","2014-028C","EARTH","TEME","UTC","SGP4","2020-08-05T12:03:18.692352","12.42887701","0.00210060","82.4482","10.3523","57.1682","303.1439","0","U","39763","999","28153","0.00001770700000","0.00000012","0.0000000000000","7872.522","115.859","1510.924","1477.850","PAYLOAD","LARGE","CIS","2014-05-23","PKMTR","","2796599","158835734","0 COSMOS 2498","1 39763U 14028C   20218.50229968 +.00000012 +00000-0 +17707-4 0  9996","2 39763 082.4482 010.3523 0021006 057.1682 303.1439 12.42887701281532"
"2.0","GENERATED VIA SPACE-TRACK.ORG API","2020-08-05T06:36:10","18 SPCS","COSMOS 2498","2014-028C","EARTH","TEME","UTC","SGP4","2020-08-05T04:19:38.984448","12.42887566","0.00210180","82.4482","10.5541","57.7094","302.6029","0","U","39763","999","28149","-0.00003922700000","0.00000005","0.0000000000000","7872.523","115.859","1510.934","1477.841","PAYLOAD","LARGE","CIS","2014-05-23","PKMTR","","2796300","158812582","0 COSMOS 2498","1 39763U 14028C   20218.18031232  .00000005  00000-0 -39227-4 0  9999","2 39763  82.4482  10.5541 0021018  57.7094 302.6029 12.42887566281493"
"2.0","GENERATED VIA SPACE-TRACK.ORG API","2020-08-05T03:19:08","18 SPCS","COSMOS 2498","2014-028C","EARTH","TEME","UTC","SGP4","2020-08-04T20:35:59.312832","12.42887525","0.00210340","82.4482","10.7558","58.3806","301.9353","0","U","39763","999","28145","-0.00004864300000","0.00000003","0.0000000000000","7872.523","115.859","1510.947","1477.829","PAYLOAD","LARGE","CIS","2014-05-23","PKMTR","","2796208","158805527","0 COSMOS 2498","1 39763U 14028C   20217.85832538 +.00000003 +00000-0 -48643-4 0  9990","2 39763 082.4482 010.7558 0021034 058.3806 301.9353 12.42887525281452"
"2.0","GENERATED VIA SPACE-TRACK.ORG API","2020-08-04T21:06:43","18 SPCS","COSMOS 2498","2014-028C","EARTH","TEME","UTC","SGP4","2020-08-04T14:48:14.558688","12.42887224","0.00210100","82.4478","10.9067","58.8190","301.4971","0","U","39763","999","28142","-0.00020925000000","-0.00000019","0.0000000000000","7872.524","115.859","1510.929","1477.849","PAYLOAD","LARGE","CIS","2014-05-23","PKMTR","","2796043","158781709","0 COSMOS 2498","1 39763U 14028C   20217.61683517 -.00000019 +00000-0 -20925-3 0  9995","2 39763 082.4478 010.9067 0021010 058.8190 301.4971 12.42887224281423"
